NORAD_CAT_ID,OBJECT_NAME,OBJECT_TYPE,EPOCH,MEAN_MOTION,ECCENTRICITY,INCLINATION,RA_OF_ASC_NODE,ARG_OF_PERICENTER,MEAN_ANOMALY,BSTAR,MEAN_MOTION_DOT,MEAN_MOTION_DDOT,TLE_LINE0,TLE_LINE1,TLE_LINE2,SEMIMAJOR_AXIS,PERIOD,APOGEE,PERIGEE,DECAYED
53016.0,STARLINK-4283,PAYLOAD,2023-06-08 12:06:35,15.08837038,0.0001137,53.2159,276.5714,94.2233,265.8889,9.3011e-05,1.193e-05,0.0,0 STARLINK-4283,1 53016U 22076AG  23159.50458183  .00001193  00000-0  93011-4 0  9998,2 53016  53.2159 276.5714 0001137  94.2233 265.8889 15.08837038 51239,6917.889,95.438,540.541,538.968,0.0
53016.0,STARLINK-4283,PAYLOAD,2023-06-08 13:41:58,15.08840311,0.0001394,53.2169,276.2738,100.0375,260.0774,9.2208e-05,1.18e-05,0.0,0 STARLINK-4283,1 53016U 22076AG  23159.57081998  .00001180  00000-0  92208-4 0  9994,2 53016  53.2169 276.2738 0001394 100.0375 260.0774 15.08840311 51240,6917.879,95.438,540.709,538.78,0.0
53016.0,STARLINK-4283,PAYLOAD,2023-06-08 20:03:31,15.08848115,0.0001205,53.2165,275.0845,88.584,271.529,0.00022138,3.238e-05,0.0,0 STARLINK-4283,1 53016U 22076AG  23159.83577644  .00003238  00000-0  22138-3 0  9991,2 53016  53.2165 275.0845 0001205  88.5840 271.5290 15.08848115 51756,6917.856,95.437,540.554,538.887,0.0
53016.0,STARLINK-4283,PAYLOAD,2023-06-09 07:11:13,15.08833033,0.000124,53.2157,273.0029,88.1371,271.9763,-3.3423e-05,-8.2e-06,0.0,0 STARLINK-4283,1 53016U 22076AG  23160.29946595 -.00000820  00000-0 -33423-4 0  9994,2 53016  53.2157 273.0029 0001240  88.1371 271.9763 15.08833033 51823,6917.902,95.438,540.625,538.909,0.0
53016.0,STARLINK-4283,PAYLOAD,2023-06-09 13:32:46,15.08834869,0.0001274,53.2154,271.8134,96.4235,263.6902,-3.8295e-06,-3.49e-06,0.0,0 STARLINK-4283,1 53016U 22076AG  23160.56442550 -.00000349  00000-0 -38295-5 0  9995,2 53016  53.2154 271.8134 0001274  96.4235 263.6902 15.08834869 51394,6917.896,95.438,540.642,538.88,0.0
53016.0,STARLINK-4283,PAYLOAD,2023-06-10 00:40:28,15.08841349,0.0001296,53.2162,269.7319,86.9383,273.1757,0.00011494,1.542e-05,0.0,0 STARLINK-4283,1 53016U 22076AG  23161.02810401  .00001542  00000-0  11494-3 0  9995,2 53016  53.2162 269.7319 0001296  86.9383 273.1757 15.08841349 51931,6917.876,95.437,540.638,538.845,0.0
53016.0,STARLINK-4283,PAYLOAD,2023-06-10 13:23:33,15.088459,0.0001219,53.2162,267.3538,84.2119,275.9012,0.00019546,2.825e-05,0.0,0 STARLINK-4283,1 53016U 22076AG  23161.55802229  .00002825  00000-0  19546-3 0  9993,2 53016  53.2162 267.3538 0001219  84.2119 275.9012 15.08845900 51549,6917.862,95.437,540.571,538.884,0.0
53016.0,STARLINK-4283,PAYLOAD,2023-06-11 06:52:47,15.0884206,0.0001222,53.2163,264.0827,87.9229,272.1903,0.00022191,3.246e-05,0.0,0 STARLINK-4283,1 53016U 22076AG  23162.28666470  .00003246  00000-0  22191-3 0  9998,2 53016  53.2163 264.0827 0001222  87.9229 272.1903 15.08842060 52128,6917.874,95.437,540.584,538.894,0.0
53016.0,STARLINK-4283,PAYLOAD,2023-06-11 13:14:20,15.08845502,0.0001205,53.2167,262.8927,89.1024,271.0106,0.00018254,2.619e-05,0.0,0 STARLINK-4283,1 53016U 22076AG  23162.55162230  .00002619  00000-0  18254-3 0  9991,2 53016  53.2167 262.8927 0001205  89.1024 271.0106 15.08845502 51695,6917.864,95.437,540.562,538.895,0.0
53016.0,STARLINK-4283,PAYLOAD,2023-06-12 06:43:34,15.08839304,0.0001221,53.2169,259.6216,97.9526,262.1605,0.00020333,2.95e-05,0.0,0 STARLINK-4283,1 53016U 22076AG  23163.28026436  .00002950  00000-0  20333-3 0  9998,2 53016  53.2169 259.6216 0001221  97.9526 262.1605 15.08839304 52277,6917.883,95.438,540.592,538.903,0.0
53016.0,STARLINK-4283,PAYLOAD,2023-06-12 13:05:07,15.0884483,0.0001233,53.2168,258.4323,97.1606,262.9527,0.00021118,3.075e-05,0.0,0 STARLINK-4283,1 53016U 22076AG  23163.54522091  .00003075  00000-0  21118-3 0  9996,2 53016  53.2168 258.4323 0001233  97.1606 262.9527 15.08844830 51849,6917.866,95.437,540.584,538.878,0.0
53016.0,STARLINK-4283,PAYLOAD,2023-06-13 06:34:21,15.08836604,0.000104,53.2163,255.1617,95.5221,264.5889,2.8518e-06,-2.42e-06,0.0,0 STARLINK-4283,1 53016U 22076AG  23164.27386422 -.00000242  00000-0  28518-5 0  9990,2 53016  53.2163 255.1617 0001040  95.5221 264.5889 15.08836604 52429,6917.891,95.438,540.475,539.036,0.0
53016.0,STARLINK-4283,PAYLOAD,2023-06-14 06:25:09,15.08836194,8.9e-05,53.2176,250.7025,100.2022,259.9071,5.2756e-05,5.52e-06,0.0,0 STARLINK-4283,1 53016U 22076AG  23165.26746750  .00000552  00000-0  52756-4 0  9997,2 53016  53.2176 250.7025 0000890 100.2022 259.9071 15.08836194 52102,6917.892,95.438,540.373,539.141,0.0
53016.0,STARLINK-4283,PAYLOAD,2023-06-14 22:19:00,15.0884026,8.79e-05,53.2182,247.7287,101.5904,258.5186,1.2244e-05,-9.3e-07,0.0,0 STARLINK-4283,1 53016U 22076AG  23165.92986658 -.00000093  00000-0  12244-4 0  9992,2 53016  53.2182 247.7287 0000879 101.5904 258.5186 15.08840260 52678,6917.88,95.438,540.353,539.137,0.0
53016.0,STARLINK-4283,PAYLOAD,2023-06-15 09:26:42,15.08833527,9.72e-05,53.2184,245.647,105.9943,254.1157,6.5674e-05,7.57e-06,0.0,0 STARLINK-4283,1 53016U 22076AG  23166.39355199  .00000757  00000-0  65674-4 0  9995,2 53016  53.2184 245.6470 0000972 105.9943 254.1157 15.08833527 52742,6917.9,95.438,540.438,539.093,0.0
53016.0,STARLINK-4283,PAYLOAD,2023-06-15 12:37:28,15.08836644,9.74e-05,53.2182,245.0523,103.3941,256.716,9.2945e-05,1.192e-05,0.0,0 STARLINK-4283,1 53016U 22076AG  23166.52603004  .00001192  00000-0  92945-4 0  9996,2 53016  53.2182 245.0523 0000974 103.3941 256.7160 15.08836644 52290,6917.891,95.438,540.429,539.082,0.0
53016.0,STARLINK-4283,PAYLOAD,2023-06-15 15:48:15,15.08838498,9.92e-05,53.2181,244.4574,104.1346,255.9756,0.00010636,1.405e-05,0.0,0 STARLINK-4283,1 53016U 22076AG  23166.65850883  .00001405  00000-0  10636-3 0  9992,2 53016  53.2181 244.4574 0000992 104.1346 255.9756 15.08838498 52310,6917.885,95.438,540.436,539.064,0.0
53016.0,STARLINK-4283,PAYLOAD,2023-06-16 09:17:29,15.08848107,9.54e-05,53.2178,241.1858,93.8182,266.2919,0.000178,2.547e-05,0.0,0 STARLINK-4283,1 53016U 22076AG  23167.38714214  .00002547  00000-0  17800-3 0  9998,2 53016  53.2178 241.1858 0000954  93.8182 266.2919 15.08848107 52892,6917.856,95.437,540.381,539.061,0.0
53016.0,STARLINK-4283,PAYLOAD,2023-06-16 12:28:15,15.08852506,9.47e-05,53.2168,240.5909,89.8029,270.3071,0.00026561,3.943e-05,0.0,0 STARLINK-4283,1 53016U 22076AG  23167.51962125  .00003943  00000-0  26561-3 0  9994,2 53016  53.2168 240.5909 0000947  89.8029 270.3071 15.08852506 52442,6917.842,95.437,540.362,539.052,0.0
53016.0,STARLINK-4283,PAYLOAD,2023-06-16 22:00:34,15.0884414,9.43e-05,53.2166,238.8068,90.0531,270.0569,0.00016623,2.359e-05,0.0,0 STARLINK-4283,1 53016U 22076AG  23167.91706410  .00002359  00000-0  16623-3 0  9999,2 53016  53.2166 238.8068 0000943  90.0531 270.0569 15.08844140 52976,6917.868,95.437,540.385,539.08,0.0
53016.0,STARLINK-4283,PAYLOAD,2023-06-17 10:43:39,15.08837708,0.0001025,53.2169,236.4285,88.1929,271.9181,4.8298e-05,4.81e-06,0.0,0 STARLINK-4283,1 53016U 22076AG  23168.44698800  .00000481  00000-0  48298-4 0  9999,2 53016  53.2169 236.4285 0001025  88.1929 271.9181 15.08837708 53057,6917.887,95.438,540.461,539.043,0.0
53016.0,STARLINK-4283,PAYLOAD,2023-06-17 12:19:02,15.08837302,8.61e-05,53.216,236.1301,96.3349,263.7741,6.0894e-06,-1.91e-06,0.0,0 STARLINK-4283,1 53016U 22076AG  23168.51322771 -.00000191  00000-0  60894-5 0  9994,2 53016  53.2160 236.1301 0000861  96.3349 263.7741 15.08837302 52597,6917.889,95.438,540.349,539.158,0.0
53016.0,STARLINK-4283,PAYLOAD,2023-06-18 10:34:27,15.08838637,8.12e-05,53.217,231.9675,92.0192,268.0893,-2.5014e-07,-2.92e-06,0.0,0 STARLINK-4283,1 53016U 22076AG  23169.44059064 -.00000292  00000-0 -25014-6 0  9998,2 53016  53.2170 231.9675 0000812  92.0192 268.0893 15.08838637 52734,6917.885,95.438,540.311,539.188,0.0
53016.0,STARLINK-4283,PAYLOAD,2023-06-18 21:42:08,15.08845454,7.63e-05,53.2164,229.8858,105.9129,254.1947,-3.3277e-05,-8.17e-06,0.0,0 STARLINK-4283,1 53016U 22076AG  23169.90426559 -.00000817  00000-0 -33277-4 0  9997,2 53016  53.2164 229.8858 0000763 105.9129 254.1947 15.08845454 53276,6917.864,95.437,540.257,539.201,0.0
53016.0,STARLINK-4283,PAYLOAD,2023-06-19 10:25:13,15.08839606,8.34e-05,53.2163,227.5069,94.8257,265.283,0.00011335,1.517e-05,0.0,0 STARLINK-4283,1 53016U 22076AG  23170.43418658  .00001517  00000-0  11335-3 0  9994,2 53016  53.2163 227.5069 0000834  94.8257 265.2830 15.08839606 52883,6917.882,95.438,540.324,539.17,0.0
53016.0,STARLINK-4283,PAYLOAD,2023-06-20 10:16:01,15.08830548,8.33e-05,53.2182,223.0501,78.3364,281.7722,4.3217e-05,4e-06,0.0,0 STARLINK-4283,1 53016U 22076AG  23171.42779653  .00000400  00000-0  43217-4 0  9994,2 53016  53.2182 223.0501 0000833  78.3364 281.7722 15.08830548 53500,6917.909,95.438,540.351,539.198,0.0
53016.0,STARLINK-4283,PAYLOAD,2023-06-20 13:26:47,15.08835957,8.21e-05,53.2164,222.4516,84.3168,275.7918,4.2149e-05,3.83e-06,0.0,0 STARLINK-4283,1 53016U 22076AG  23171.56027411  .00000383  00000-0  42149-4 0  9990,2 53016  53.2164 222.4516 0000821  84.3168 275.7918 15.08835957 53054,6917.893,95.438,540.326,539.19,0.0
53016.0,STARLINK-4283,PAYLOAD,2023-06-21 11:42:11,15.08841539,8.9e-05,53.2171,218.2894,83.807,276.3024,4.8193e-05,4.79e-06,0.0,0 STARLINK-4283,1 53016U 22076AG  23172.48763235  .00000479  00000-0  48193-4 0  9994,2 53016  53.2171 218.2894 0000890  83.8070 276.3024 15.08841539 53661,6917.876,95.437,540.356,539.125,0.0
53016.0,STARLINK-4283,PAYLOAD,2023-06-21 19:39:07,15.08840481,9.19e-05,53.2173,216.803,80.8992,279.2104,-3.3567e-05,-8.22e-06,0.0,0 STARLINK-4283,1 53016U 22076AG  23172.81883533 -.00000822  00000-0 -33567-4 0  9998,2 53016  53.2173 216.8030 0000919  80.8992 279.2104 15.08840481 53241,6917.879,95.438,540.38,539.108,0.0
53016.0,STARLINK-4283,PAYLOAD,2023-06-22 02:00:40,15.08834991,9.42e-05,53.217,215.6132,76.7434,283.3664,5.9056e-05,6.52e-06,0.0,0 STARLINK-4283,1 53016U 22076AG  23173.08379757  .00000652  00000-0  59056-4 0  9996,2 53016  53.2170 215.6132 0000942  76.7434 283.3664 15.08834991 53751,6917.896,95.438,540.412,539.109,0.0
